{
    "links": {
        "self": "http://www.neowsapp.com/rest/v1/neo/54054610?api_key=iIulBulltgU6a56xZRHN4H3l9WmuAYTsLGpBGhQ2"
    },
    "id": "54054610",
    "neo_reference_id": "54054610",
    "name": "(2020 SL4)",
    "designation": "2020 SL4",
    "nasa_jpl_url": "http://ssd.jpl.nasa.gov/sbdb.cgi?sstr=54054610",
    "absolute_magnitude_h": 24.572,
    "estimated_diameter": {
        "kilometers": {
            "estimated_diameter_min": 0.0323709151,
            "estimated_diameter_max": 0.0723835666
        },
        "meters": {
            "estimated_diameter_min": 32.3709150904,
            "estimated_diameter_max": 72.383566636
        },
        "miles": {
            "estimated_diameter_min": 0.0201143479,
            "estimated_diameter_max": 0.0449770492
        },
        "feet": {
            "estimated_diameter_min": 106.2037930652,
            "estimated_diameter_max": 237.4789007622
        }
    },
    "is_potentially_hazardous_asteroid": false,
    "close_approach_data": [
        {
            "close_approach_date": "2020-09-06",
            "close_approach_date_full": "2020-Sep-06 19:04",
            "epoch_date_close_approach": 1599419040000,
            "relative_velocity": {
                "kilometers_per_second": "9.1773448649",
                "kilometers_per_hour": "33038.4415135918",
                "miles_per_hour": "20528.8027282649"
            },
            "miss_distance": {
                "astronomical": "0.1047310269",
                "lunar": "40.7403694641",
                "kilometers": "15667538.547152703",
                "miles": "9735357.0186971814"
            },
            "orbiting_body": "Earth"
        }
    ],
    "orbital_data": {
        "orbit_id": "2",
        "orbit_determination_date": "2020-09-26 06:46:23",
        "first_observation_date": "2020-09-21",
        "last_observation_date": "2020-09-26",
        "data_arc_in_days": 5,
        "observations_used": 16,
        "orbit_uncertainty": "9",
        "minimum_orbit_intersection": ".0995728",
        "jupiter_tisserand_invariant": "3.175",
        "epoch_osculation": "2459114.5",
        "eccentricity": ".5759005987339243",
        "semi_major_axis": "2.541928995498181",
        "inclination": "9.109090558297185",
        "ascending_node_longitude": ".9013144176890419",
        "orbital_period": "1480.278902745487",
        "perihelion_distance": "1.078030565051656",
        "perihelion_argument": "325.5761038177606",
        "aphelion_distance": "4.005827425944706",
        "perihelion_time": "2459084.622257270209",
        "mean_anomaly": "7.266189744902483",
        "mean_motion": ".2431974132255109",
        "equinox": "J2000",
        "orbit_class": {
            "orbit_class_type": "AMO",
            "orbit_class_description": "Near-Earth asteroid orbits similar to that of 1221 Amor",
            "orbit_class_range": "1.017 AU < q (perihelion) < 1.3 AU"
        }
    },
    "is_sentry_object": false
}